NORAD_CAT_ID,OBJECT_NAME,OBJECT_TYPE,EPOCH,MEAN_MOTION,ECCENTRICITY,INCLINATION,RA_OF_ASC_NODE,ARG_OF_PERICENTER,MEAN_ANOMALY,BSTAR,MEAN_MOTION_DOT,MEAN_MOTION_DDOT,TLE_LINE0,TLE_LINE1,TLE_LINE2,SEMIMAJOR_AXIS,PERIOD,APOGEE,PERIGEE,DECAYED
51805.0,STARLINK-3605,PAYLOAD,2022-04-12 04:00:00,15.73123743,0.0001383,53.2129,278.2906,66.3175,138.0251,0.00016863,0.00023034,0.0,0 STARLINK-3605,1 51805U 22017AP  22102.16667824  .00023034  00000-0  16863-3 0  9997,2 51805  53.2129 278.2906 0001383  66.3175 138.0251 15.73123743  8442,6728.113,91.538,350.908,349.047,0.0
51805.0,STARLINK-3605,PAYLOAD,2022-04-12 14:00:01,15.73163311,0.0001335,53.2132,276.2286,70.8974,334.4787,0.00017838,0.00024448,0.0,0 STARLINK-3605,1 51805U 22017AP  22102.58334491  .00024448  00000-0  17838-3 0  9997,2 51805  53.2132 276.2286 0001335  70.8974 334.4787 15.73163311  3692,6728.0,91.535,350.76300000000015,348.967,0.0
51805.0,STARLINK-3605,PAYLOAD,2022-04-12 22:00:00,15.73168583,0.0001446,53.2132,274.5808,59.9641,74.3144,0.00054583,0.00076582,0.0,0 STARLINK-3605,1 51805U 22017AP  22102.91667824  .00076582  00000-0  54583-3 0  9997,2 51805  53.2132 274.5808 0001446  59.9641  74.3144 15.73168583  3687,6727.985,91.535,350.8230000000001,348.87699999999984,0.0
51805.0,STARLINK-3605,PAYLOAD,2022-04-13 04:00:00,15.73237695,0.0001445,53.2133,273.342,63.0413,47.9301,-0.00047217,-0.00066472,0.0,0 STARLINK-3605,1 51805U 22017AP  22103.16667824 -.00066472  00000-0 -47217-3 0  9990,2 51805  53.2133 273.3420 0001445  63.0413  47.9301 15.73237695  8606,6727.788000000001,91.531,350.625,348.681,0.0
51805.0,STARLINK-3605,PAYLOAD,2022-04-13 12:00:00,15.73309927,0.000115,53.2148,271.6842,69.5746,130.389,-0.00094333,-0.00131574,0.0,0 STARLINK-3605,1 51805U 22017AP  22103.50001157 -.00131574  00000-0 -94333-3 0  9996,2 51805  53.2148 271.6842 0001150  69.5746 130.3890 15.73309927  8657,6727.581999999999,91.527,350.22,348.673,0.0
51805.0,STARLINK-3605,PAYLOAD,2022-04-13 14:00:03,15.73426645,0.0001035,53.2152,271.2707,59.0124,253.3136,-0.0035553,-0.00476906,0.0,0 STARLINK-3605,1 51805U 22017AP  22103.58336806 -.00476906  00000-0 -35553-2 0  9995,2 51805  53.2152 271.2707 0001035  59.0124 253.3136 15.73426645  3712,6727.249,91.52,349.81,348.418,0.0
51805.0,STARLINK-3605,PAYLOAD,2022-04-13 20:00:01,15.73193439,0.0001202,53.2132,270.0436,41.294,247.7529,0.00046774,0.00065519,0.0,0 STARLINK-3605,1 51805U 22017AP  22103.83335648  .00065519  00000-0  46774-3 0  9996,2 51805  53.2132 270.0436 0001202  41.2940 247.7529 15.73193439  8700,6727.9140000000025,91.534,350.588,348.97,0.0
51805.0,STARLINK-3605,PAYLOAD,2022-04-13 22:00:00,15.73181383,0.0001173,53.2129,269.6312,37.7251,3.4960000000000004,0.00081095,0.00114665,0.0,0 STARLINK-3605,1 51805U 22017AP  22103.91667824  .00114665  00000-0  81095-3 0  9991,2 51805  53.2129 269.6312 0001173  37.7251   3.4960 15.73181383  3701,6727.948,91.534,350.602,349.024,0.0
51805.0,STARLINK-3605,PAYLOAD,2022-04-14 04:00:00,15.732679699999998,0.0001052,53.2128,268.3923,43.6324,334.2835,-0.00047442,-0.00066866,0.0,0 STARLINK-3605,1 51805U 22017AP  22104.16667824 -.00066866  00000-0 -47442-3 0  9998,2 51805  53.2128 268.3923 0001052  43.6324 334.2835 15.73267970  8761,6727.701,91.529,350.274,348.8590000000001,0.0
51805.0,STARLINK-3605,PAYLOAD,2022-04-14 14:00:01,15.73258259,0.0001181,53.2131,266.3304,52.6536,166.454,-0.00069463,-0.00097228,0.0,0 STARLINK-3605,1 51805U 22017AP  22104.58334491 -.00097228  00000-0 -69463-3 0  9998,2 51805  53.2131 266.3304 0001181  52.6536 166.4540 15.73258259  3701,6727.729,91.53,350.389,348.8,0.0
51805.0,STARLINK-3605,PAYLOAD,2022-04-14 20:00:01,15.7319591,0.0001341999999999,53.2133,265.0944,41.1688,154.6873,-6.482e-05,-9.705e-05,0.0,0 STARLINK-3605,1 51805U 22017AP  22104.83334491 -.00009705  00000-0 -64820-4 0  9992,2 51805  53.2133 265.0944 0001342  41.1688 154.6873 15.73195910  8863,6727.906999999997,91.533,350.675,348.869,0.0
51805.0,STARLINK-3605,PAYLOAD,2022-04-14 22:00:00,15.73170339,0.0001324,53.2131,264.682,38.4224,269.6705,0.00033759,0.00046964,0.0,0 STARLINK-3605,1 51805U 22017AP  22104.91667824  .00046964  00000-0  33759-3 0  9992,2 51805  53.2131 264.6820 0001324  38.4224 269.6705 15.73170339  3701,6727.98,91.535,350.736,348.954,0.0
51805.0,STARLINK-3605,PAYLOAD,2022-04-15 04:00:00,15.7319518,0.0001182,53.2134,263.4429,39.5781,245.1988,0.00042438,0.00059348,0.0,0 STARLINK-3605,1 51805U 22017AP  22105.16667824  .00059348  00000-0  42438-3 0  9994,2 51805  53.2134 263.4429 0001182  39.5781 245.1988 15.73195180  8919,6727.909000000002,91.533,350.569,348.97900000000016,0.0
51805.0,STARLINK-3605,PAYLOAD,2022-04-15 12:00:00,15.73296005,0.0001254,53.2138,261.7928,41.4983,332.2417,0.00019315,0.00026684,0.0,0 STARLINK-3605,1 51805U 22017AP  22105.50001157  .00026684  00000-0  19315-3 0  9998,2 51805  53.2138 261.7928 0001254  41.4983 332.2417 15.73296005  8973,6727.621,91.528,350.33,348.64300000000014,0.0
51805.0,STARLINK-3605,PAYLOAD,2022-04-15 14:00:01,15.73326912,0.0001330999999999,53.2137,261.381,40.2292,85.7649,-0.00025518,-0.00036473,0.0,0 STARLINK-3605,1 51805U 22017AP  22105.58334491 -.00036473  00000-0 -25518-3 0  9997,2 51805  53.2137 261.3810 0001331  40.2292  85.7649 15.73326912  3696,6727.533,91.526,350.2940000000001,348.50300000000016,0.0
51805.0,STARLINK-3605,PAYLOAD,2022-04-15 20:00:01,15.73277873,0.0001476,53.2136,260.1449,36.031,66.7421,-0.00055036,-0.00077411,0.0,0 STARLINK-3605,1 51805U 22017AP  22105.83334491 -.00077411  00000-0 -55036-3 0  9990,2 51805  53.2136 260.1449 0001476  36.0310  66.7421 15.73277873  9025,6727.6730000000025,91.529,350.531,348.545,0.0
51805.0,STARLINK-3605,PAYLOAD,2022-04-15 22:00:00,15.73266032,0.0001476,53.2132,259.7323,35.4425,179.5845,-0.00058257,-0.00081821,0.0,0 STARLINK-3605,1 51805U 22017AP  22105.91667824 -.00081821  00000-0 -58257-3 0  9996,2 51805  53.2132 259.7323 0001476  35.4425 179.5845 15.73266032  3680,6727.706999999999,91.529,350.565,348.579,0.0
51805.0,STARLINK-3605,PAYLOAD,2022-04-16 12:00:02,15.73137033,0.0001694,53.2137,256.8437,55.0306,225.7018,-0.0010286,-0.00142189,0.0,0 STARLINK-3605,1 51805U 22017AP  22106.50002315 -.00142189  00000-0 -10286-2 0  9994,2 51805  53.2137 256.8437 0001694  55.0306 225.7018 15.73137033  9126,6728.075,91.537,351.079,348.8,0.0
51805.0,STARLINK-3605,PAYLOAD,2022-04-16 14:00:01,15.73086201,0.0001749,53.2137,256.432,53.765,339.1175,-0.00052798,-0.00073719,0.0,0 STARLINK-3605,1 51805U 22017AP  22106.58334491 -.00073719  00000-0 -52798-3 0  9992,2 51805  53.2137 256.4320 0001749  53.7650 339.1175 15.73086201  3703,6728.22,91.54,351.261,348.908,0.0
51805.0,STARLINK-3605,PAYLOAD,2022-04-16 20:00:01,15.73001067,0.000195,53.2138,255.1963,49.918,319.5487,0.0014423,0.00205065,0.0,0 STARLINK-3605,1 51805U 22017AP  22106.83334491  .00205065  00000-0  14423-2 0  9991,2 51805  53.2138 255.1963 0001950  49.9180 319.5487 15.73001067  9185,6728.462,91.545,351.639,349.015,0.0
51805.0,STARLINK-3605,PAYLOAD,2022-04-16 22:00:01,15.73053853,0.0001902,53.2136,254.7836,48.1031,73.60300000000002,0.0010599,0.00149874,0.0,0 STARLINK-3605,1 51805U 22017AP  22106.91668981  .00149874  00000-0  10599-2 0  9999,2 51805  53.2136 254.7836 0001902  48.1031  73.6030 15.73053853  3704,6728.312,91.542,351.457,348.897,0.0
51805.0,STARLINK-3605,PAYLOAD,2022-04-17 04:00:00,15.73134855,0.0001703,53.2141,253.5449,49.0922,49.1551,0.00045893,0.00064102,0.0,0 STARLINK-3605,1 51805U 22017AP  22107.16667824  .00064102  00000-0  45893-3 0  9998,2 51805  53.2141 253.5449 0001703  49.0922  49.1551 15.73134855  9237,6728.081,91.537,351.092,348.8,0.0
51805.0,STARLINK-3605,PAYLOAD,2022-04-17 14:00:01,15.73212801,0.0001884,53.2143,251.4837,47.793,251.5571,0.00021526,0.00029714,0.0,0 STARLINK-3605,1 51805U 22017AP  22107.58334491  .00029714  00000-0  21526-3 0  9992,2 51805  53.2143 251.4837 0001884  47.7930 251.5571 15.73212801  3717,6727.859,91.532,350.991,348.456,0.0
51805.0,STARLINK-3605,PAYLOAD,2022-04-17 22:00:00,15.73242708,0.0001977,53.2138,249.8349,40.7802,347.511,0.00030279,0.00042167,0.0,0 STARLINK-3605,1 51805U 22017AP  22107.91667824  .00042167  00000-0  30279-3 0  9990,2 51805  53.2138 249.8349 0001977  40.7802 347.5110 15.73242708  3695,6727.773,91.531,350.968,348.30800000000005,0.0
51805.0,STARLINK-3605,PAYLOAD,2022-04-18 04:00:00,15.73265605,0.0001718,53.2141,248.5959,44.4761,320.5655,-0.00023986,-0.00034243,0.0,0 STARLINK-3605,1 51805U 22017AP  22108.16667824 -.00034243  00000-0 -23986-3 0  9993,2 51805  53.2141 248.5959 0001718  44.4761 320.5655 15.73265605  9399,6727.708000000001,91.529,350.72900000000016,348.417,0.0
51805.0,STARLINK-3605,PAYLOAD,2022-04-18 14:00:01,15.73240097,0.0001836,53.2142,246.535,41.7448,164.5385,-0.00019665,-0.00028176,0.0,0 STARLINK-3605,1 51805U 22017AP  22108.58334491 -.00028176  00000-0 -19665-3 0  9997,2 51805  53.2142 246.5350 0001836  41.7448 164.5385 15.73240097  3710,6727.781,91.531,350.881,348.411,0.0
51805.0,STARLINK-3605,PAYLOAD,2022-04-18 22:00:00,15.7319702,0.000188,53.214,244.8859,33.8581,261.3816,0.00037047,0.00051688,0.0,0 STARLINK-3605,1 51805U 22017AP  22108.91667824  .00051688  00000-0  37047-3 0  9999,2 51805  53.2140 244.8859 0001880  33.8581 261.3816 15.73197020  3703,6727.904,91.533,351.034,348.504,0.0
51805.0,STARLINK-3605,PAYLOAD,2022-04-19 04:00:00,15.73225827,0.0001658,53.2145,243.6472,34.086,237.8468,-8.465700000000001e-05,-0.00012498,0.0,0 STARLINK-3605,1 51805U 22017AP  22109.16667824 -.00012498  00000-0 -84657-4 0  9995,2 51805  53.2145 243.6472 0001658  34.0860 237.8468 15.73225827  9548,6727.821999999999,91.532,350.802,348.571,0.0
51805.0,STARLINK-3605,PAYLOAD,2022-04-19 14:00:01,15.73232141,0.0001866,53.2145,241.5863,31.3941,81.7147,-0.00027825,-0.00039544,0.0,0 STARLINK-3605,1 51805U 22017AP  22109.58334491 -.00039544  00000-0 -27825-3 0  9996,2 51805  53.2145 241.5863 0001866  31.3941  81.7147 15.73232141  3709,6727.804,91.531,350.9240000000001,348.413,0.0
